IDEFIX & ARIANE 42P R/B 
1 27422U 02021B   26007.73444572  .00000383  00000+0  16226-3 0  9996
2 27422  98.5814 307.0920 0012159  12.4472 347.7009 14.30974179235301
AQUA                    
1 27424U 02022A   26004.96787593  .00001598  00000+0  32997-3 0  9996
2 27424  98.4069 331.2279 0002002  90.2377   0.6092 14.61798176259425
CZ-4B R/B               
1 27432U 02024C   26007.75647987  .00000063  00000+0  55649-4 0  9995
2 27432  98.8957  61.4323 0049962 195.0722 276.7865 14.14534554220620
MIDORI II (ADEOS-II)    
1 27597U 02056A   26007.82844647  .00000412  00000+0  18005-3 0  9994
2 27597  98.7670 325.9266 0001417 128.5950 231.5358 14.29230143201600
H-2A R/B                
1 27601U 02056E   26007.85029823  .00000476  00000+0  18171-3 0  9998
2 27601  98.3099 330.5728 0070034 343.9161  68.0932 14.33705687205396
CZ-4B R/B               
1 28059U 03049C   26007.86661938  .00000525  00000+0  13196-3 0  9996
2 28059  98.6807   0.4204 0049220  58.0304 302.5663 14.54941221177756
CZ-2C R/B               
1 28222U 04012C   26007.71081796  .00035387  00000+0  47228-3 0  9998
2 28222  97.7368  67.5137 0016826 171.6761 188.4776 15.57846520194760
SL-16 R/B               
1 28353U 04021B   26007.71475267  .00000265  00000+0  16260-3 0  9992
2 28353  71.0021   0.4530 0003646 157.0716 203.0570 14.14590309114214
CZ-4B R/B               
1 28415U 04035C   26007.63212457  .00007887  00000+0  28795-3 0  9990
2 28415  97.3576  42.6344 0032759 182.3689 177.7400 15.27882841170588
CZ-2C R/B               
1 28480U 04046B   26007.76271086  .00000354  00000+0  14729-3 0  9995
2 28480  98.1999 286.5255 0139067 335.5212  23.9408 14.26961952 99817
ARIANE 5 R/B            
1 28499U 04049H   26007.72822843  .00001619  00000+0  18486-3 0  9996
2 28499  98.2539 173.9453 0084203 187.8803 172.1094 14.85101324136748
CZ-2D R/B               
1 28738U 05024B   26007.60743882  .00026934  00000+0  40228-3 0  9994
2 28738  97.3625  20.7625 0003272 226.7014 133.3967 15.55010507130274
